STARLINK-36796          
1 67722U 26026B   26056.25002315 -.00098629  00000+0 -51859-3 0  9993
2 67722  97.2812 110.2581 0001289  81.4839 114.3744 15.80875206  3319
STARLINK-36369          
1 67723U 26026C   26056.25002315 -.00061139  00000+0 -31967-3 0  9998
2 67723  97.2806 110.2608 0001077  71.5317 130.1532 15.80885580  3316
STARLINK-36752          
1 67724U 26026D   26056.25002315  .00024793  00000+0  12982-3 0  9998
2 67724  97.2786 110.2647 0001778  69.2189 140.1343 15.80813430  3312
STARLINK-36754          
1 67725U 26026E   26056.25002315 -.00071319  00000+0 -37401-3 0  9990
2 67725  97.2778 110.2662 0001335 107.0120 108.3397 15.80852647  3314
STARLINK-36755          
1 67726U 26026F   26056.25002315 -.00014305  00000+0 -73983-4 0  9999
2 67726  97.2772 110.2683 0001031  85.5631 137.4451 15.80841198  3315
STARLINK-36741          
1 67727U 26026G   26056.25002315 -.00042546  00000+0 -22204-3 0  9997
2 67727  97.2767 110.2698 0001266  85.2821 142.6570 15.80857622  3313
STARLINK-36757          
1 67728U 26026H   26056.25002315 -.00075429  00000+0 -39551-3 0  9997
2 67728  97.2766 110.2723 0001517  95.0899 139.7740 15.80867455  3316
STARLINK-36751          
1 67729U 26026J   26056.25002315 -.00102280  00000+0 -53794-3 0  9999
2 67729  97.2760 110.2774 0001362  87.2724 161.6690 15.80879003  3315
STARLINK-36747          
1 67730U 26026K   26056.25002315 -.00098050  00000+0 -51570-3 0  9990
2 67730  97.2761 110.2745 0001401  75.8000 164.6086 15.80867058  3319
STARLINK-36315          
1 67731U 26026L   26056.25002315 -.00076073  00000+0 -39869-3 0  9999
2 67731  97.2764 110.2811 0001091  81.1962 173.2407 15.80881423  3314
STARLINK-36260          
1 67732U 26026M   26056.25002315 -.00044573  00000+0 -23258-3 0  9995
2 67732  97.2759 110.2836 0001085  69.1872 191.9682 15.80870272  3317
STARLINK-36746          
1 67733U 26026N   26056.25002315 -.01946428  00000+0 -11550-1 0  9997
2 67733  97.2728 110.2843 0001201  76.2701 189.4816 15.81037582  3313
