CCSDS_OMM_VERS = 2.0
CREATION_DATE  = 
ORIGINATOR     = 

OBJECT_NAME    = STARLINK-36796
OBJECT_ID      = 2026-026B
CENTER_NAME    = EARTH
REF_FRAME      = TEME
TIME_SYSTEM    = UTC
MEAN_ELEMENT_THEORY = SGP/SGP4

EPOCH          = 2026-02-25T06:00:02.000160
MEAN_MOTION    = 15.80875206
ECCENTRICITY   = .00012892
INCLINATION    = 97.2812
RA_OF_ASC_NODE = 110.2581
ARG_OF_PERICENTER = 81.4839
MEAN_ANOMALY   = 114.3744

EPHEMERIS_TYPE = 0
CLASSIFICATION_TYPE = U
NORAD_CAT_ID   = 67722
ELEMENT_SET_NO = 999
REV_AT_EPOCH   = 331
BSTAR          = -.51859139E-3
MEAN_MOTION_DOT = -.98629E-3
MEAN_MOTION_DDOT = 0

CCSDS_OMM_VERS = 2.0
CREATION_DATE  = 
ORIGINATOR     = 

OBJECT_NAME    = STARLINK-36369
OBJECT_ID      = 2026-026C
CENTER_NAME    = EARTH
REF_FRAME      = TEME
TIME_SYSTEM    = UTC
MEAN_ELEMENT_THEORY = SGP/SGP4

EPOCH          = 2026-02-25T06:00:02.000160
MEAN_MOTION    = 15.80885580
ECCENTRICITY   = .00010774
INCLINATION    = 97.2806
RA_OF_ASC_NODE = 110.2608
ARG_OF_PERICENTER = 71.5317
MEAN_ANOMALY   = 130.1532

EPHEMERIS_TYPE = 0
CLASSIFICATION_TYPE = U
NORAD_CAT_ID   = 67723
ELEMENT_SET_NO = 999
REV_AT_EPOCH   = 331
BSTAR          = -.31966941E-3
MEAN_MOTION_DOT = -.61139E-3
MEAN_MOTION_DDOT = 0

CCSDS_OMM_VERS = 2.0
CREATION_DATE  = 
ORIGINATOR     = 

OBJECT_NAME    = STARLINK-36752
OBJECT_ID      = 2026-026D
CENTER_NAME    = EARTH
REF_FRAME      = TEME
TIME_SYSTEM    = UTC
MEAN_ELEMENT_THEORY = SGP/SGP4

EPOCH          = 2026-02-25T06:00:02.000160
MEAN_MOTION    = 15.80813430
ECCENTRICITY   = .00017785
INCLINATION    = 97.2786
RA_OF_ASC_NODE = 110.2647
ARG_OF_PERICENTER = 69.2189
MEAN_ANOMALY   = 140.1343

EPHEMERIS_TYPE = 0
CLASSIFICATION_TYPE = U
NORAD_CAT_ID   = 67724
ELEMENT_SET_NO = 999
REV_AT_EPOCH   = 331
BSTAR          = .12981645E-3
MEAN_MOTION_DOT = .24793E-3
MEAN_MOTION_DDOT = 0

CCSDS_OMM_VERS = 2.0
CREATION_DATE  = 
ORIGINATOR     = 

OBJECT_NAME    = STARLINK-36754
OBJECT_ID      = 2026-026E
CENTER_NAME    = EARTH
REF_FRAME      = TEME
TIME_SYSTEM    = UTC
MEAN_ELEMENT_THEORY = SGP/SGP4

EPOCH          = 2026-02-25T06:00:02.000160
MEAN_MOTION    = 15.80852647
ECCENTRICITY   = .00013355
INCLINATION    = 97.2778
RA_OF_ASC_NODE = 110.2662
ARG_OF_PERICENTER = 107.0120
MEAN_ANOMALY   = 108.3397

EPHEMERIS_TYPE = 0
CLASSIFICATION_TYPE = U
NORAD_CAT_ID   = 67725
ELEMENT_SET_NO = 999
REV_AT_EPOCH   = 331
BSTAR          = -.3740062E-3
MEAN_MOTION_DOT = -.71319E-3
MEAN_MOTION_DDOT = 0

CCSDS_OMM_VERS = 2.0
CREATION_DATE  = 
ORIGINATOR     = 

OBJECT_NAME    = STARLINK-36755
OBJECT_ID      = 2026-026F
CENTER_NAME    = EARTH
REF_FRAME      = TEME
TIME_SYSTEM    = UTC
MEAN_ELEMENT_THEORY = SGP/SGP4

EPOCH          = 2026-02-25T06:00:02.000160
MEAN_MOTION    = 15.80841198
ECCENTRICITY   = .00010314
INCLINATION    = 97.2772
RA_OF_ASC_NODE = 110.2683
ARG_OF_PERICENTER = 85.5631
MEAN_ANOMALY   = 137.4451

EPHEMERIS_TYPE = 0
CLASSIFICATION_TYPE = U
NORAD_CAT_ID   = 67726
ELEMENT_SET_NO = 999
REV_AT_EPOCH   = 331
BSTAR          = -.73982555E-4
MEAN_MOTION_DOT = -.14305E-3
MEAN_MOTION_DDOT = 0

CCSDS_OMM_VERS = 2.0
CREATION_DATE  = 
ORIGINATOR     = 

OBJECT_NAME    = STARLINK-36741
OBJECT_ID      = 2026-026G
CENTER_NAME    = EARTH
REF_FRAME      = TEME
TIME_SYSTEM    = UTC
MEAN_ELEMENT_THEORY = SGP/SGP4

EPOCH          = 2026-02-25T06:00:02.000160
MEAN_MOTION    = 15.80857622
ECCENTRICITY   = .00012667
INCLINATION    = 97.2767
RA_OF_ASC_NODE = 110.2698
ARG_OF_PERICENTER = 85.2821
MEAN_ANOMALY   = 142.6570

EPHEMERIS_TYPE = 0
CLASSIFICATION_TYPE = U
NORAD_CAT_ID   = 67727
ELEMENT_SET_NO = 999
REV_AT_EPOCH   = 331
BSTAR          = -.22203594E-3
MEAN_MOTION_DOT = -.42546E-3
MEAN_MOTION_DDOT = 0

CCSDS_OMM_VERS = 2.0
CREATION_DATE  = 
ORIGINATOR     = 

OBJECT_NAME    = STARLINK-36757
OBJECT_ID      = 2026-026H
CENTER_NAME    = EARTH
REF_FRAME      = TEME
TIME_SYSTEM    = UTC
MEAN_ELEMENT_THEORY = SGP/SGP4

EPOCH          = 2026-02-25T06:00:02.000160
MEAN_MOTION    = 15.80867455
ECCENTRICITY   = .00015177
INCLINATION    = 97.2766
RA_OF_ASC_NODE = 110.2723
ARG_OF_PERICENTER = 95.0899
MEAN_ANOMALY   = 139.7740

EPHEMERIS_TYPE = 0
CLASSIFICATION_TYPE = U
NORAD_CAT_ID   = 67728
ELEMENT_SET_NO = 999
REV_AT_EPOCH   = 331
BSTAR          = -.39551444E-3
MEAN_MOTION_DOT = -.75429E-3
MEAN_MOTION_DDOT = 0

CCSDS_OMM_VERS = 2.0
CREATION_DATE  = 
ORIGINATOR     = 

OBJECT_NAME    = STARLINK-36751
OBJECT_ID      = 2026-026J
CENTER_NAME    = EARTH
REF_FRAME      = TEME
TIME_SYSTEM    = UTC
MEAN_ELEMENT_THEORY = SGP/SGP4

EPOCH          = 2026-02-25T06:00:02.000160
MEAN_MOTION    = 15.80879003
ECCENTRICITY   = .00013622
INCLINATION    = 97.2760
RA_OF_ASC_NODE = 110.2774
ARG_OF_PERICENTER = 87.2724
MEAN_ANOMALY   = 161.6690

EPHEMERIS_TYPE = 0
CLASSIFICATION_TYPE = U
NORAD_CAT_ID   = 67729
ELEMENT_SET_NO = 999
REV_AT_EPOCH   = 331
BSTAR          = -.53794389E-3
MEAN_MOTION_DOT = -.10228E-2
MEAN_MOTION_DDOT = 0

CCSDS_OMM_VERS = 2.0
CREATION_DATE  = 
ORIGINATOR     = 

OBJECT_NAME    = STARLINK-36747
OBJECT_ID      = 2026-026K
CENTER_NAME    = EARTH
REF_FRAME      = TEME
TIME_SYSTEM    = UTC
MEAN_ELEMENT_THEORY = SGP/SGP4

EPOCH          = 2026-02-25T06:00:02.000160
MEAN_MOTION    = 15.80867058
ECCENTRICITY   = .00014014
INCLINATION    = 97.2761
RA_OF_ASC_NODE = 110.2745
ARG_OF_PERICENTER = 75.8000
MEAN_ANOMALY   = 164.6086

EPHEMERIS_TYPE = 0
CLASSIFICATION_TYPE = U
NORAD_CAT_ID   = 67730
ELEMENT_SET_NO = 999
REV_AT_EPOCH   = 331
BSTAR          = -.51569599E-3
MEAN_MOTION_DOT = -.9805E-3
MEAN_MOTION_DDOT = 0

CCSDS_OMM_VERS = 2.0
CREATION_DATE  = 
ORIGINATOR     = 

OBJECT_NAME    = STARLINK-36315
OBJECT_ID      = 2026-026L
CENTER_NAME    = EARTH
REF_FRAME      = TEME
TIME_SYSTEM    = UTC
MEAN_ELEMENT_THEORY = SGP/SGP4

EPOCH          = 2026-02-25T06:00:02.000160
MEAN_MOTION    = 15.80881423
ECCENTRICITY   = .00010913
INCLINATION    = 97.2764
RA_OF_ASC_NODE = 110.2811
ARG_OF_PERICENTER = 81.1962
MEAN_ANOMALY   = 173.2407

EPHEMERIS_TYPE = 0
CLASSIFICATION_TYPE = U
NORAD_CAT_ID   = 67731
ELEMENT_SET_NO = 999
REV_AT_EPOCH   = 331
BSTAR          = -.39869397E-3
MEAN_MOTION_DOT = -.76073E-3
MEAN_MOTION_DDOT = 0

CCSDS_OMM_VERS = 2.0
CREATION_DATE  = 
ORIGINATOR     = 

OBJECT_NAME    = STARLINK-36260
OBJECT_ID      = 2026-026M
CENTER_NAME    = EARTH
REF_FRAME      = TEME
TIME_SYSTEM    = UTC
MEAN_ELEMENT_THEORY = SGP/SGP4

EPOCH          = 2026-02-25T06:00:02.000160
MEAN_MOTION    = 15.80870272
ECCENTRICITY   = .00010856
INCLINATION    = 97.2759
RA_OF_ASC_NODE = 110.2836
ARG_OF_PERICENTER = 69.1872
MEAN_ANOMALY   = 191.9682

EPHEMERIS_TYPE = 0
CLASSIFICATION_TYPE = U
NORAD_CAT_ID   = 67732
ELEMENT_SET_NO = 999
REV_AT_EPOCH   = 331
BSTAR          = -.23257566E-3
MEAN_MOTION_DOT = -.44573E-3
MEAN_MOTION_DDOT = 0

CCSDS_OMM_VERS = 2.0
CREATION_DATE  = 
ORIGINATOR     = 

OBJECT_NAME    = STARLINK-36746
OBJECT_ID      = 2026-026N
CENTER_NAME    = EARTH
REF_FRAME      = TEME
TIME_SYSTEM    = UTC
MEAN_ELEMENT_THEORY = SGP/SGP4

EPOCH          = 2026-02-25T06:00:02.000160
MEAN_MOTION    = 15.81037582
ECCENTRICITY   = .00012018
INCLINATION    = 97.2728
RA_OF_ASC_NODE = 110.2843
ARG_OF_PERICENTER = 76.2701
MEAN_ANOMALY   = 189.4816

EPHEMERIS_TYPE = 0
CLASSIFICATION_TYPE = U
NORAD_CAT_ID   = 67733
ELEMENT_SET_NO = 999
REV_AT_EPOCH   = 331
BSTAR          = -.11550329E-1
MEAN_MOTION_DOT = -.1946428E-1
MEAN_MOTION_DDOT = 0

